CCSDS_OMM_VERS = 2.0
CREATION_DATE  = 
ORIGINATOR     = 

OBJECT_NAME    = STARLINK-36890
OBJECT_ID      = 2026-054AC
CENTER_NAME    = EARTH
REF_FRAME      = TEME
TIME_SYSTEM    = UTC
MEAN_ELEMENT_THEORY = SGP/SGP4

EPOCH          = 2026-03-28T12:00:00.998784
MEAN_MOTION    = 15.80891000
ECCENTRICITY   = .0001194
INCLINATION    = 53.1592
RA_OF_ASC_NODE = 218.1667
ARG_OF_PERICENTER = 91.5197
MEAN_ANOMALY   = 204.3681

EPHEMERIS_TYPE = 0
CLASSIFICATION_TYPE = U
NORAD_CAT_ID   = 68258
ELEMENT_SET_NO = 999
REV_AT_EPOCH   = 293
BSTAR          = -.34889E-3
MEAN_MOTION_DOT = -.69068E-3
MEAN_MOTION_DDOT = 0

CCSDS_OMM_VERS = 2.0
CREATION_DATE  = 
ORIGINATOR     = 

OBJECT_NAME    = STARLINK-36323
OBJECT_ID      = 2026-054AD
CENTER_NAME    = EARTH
REF_FRAME      = TEME
TIME_SYSTEM    = UTC
MEAN_ELEMENT_THEORY = SGP/SGP4

EPOCH          = 2026-03-28T12:00:00.998784
MEAN_MOTION    = 15.80867930
ECCENTRICITY   = .0001357
INCLINATION    = 53.1592
RA_OF_ASC_NODE = 218.1844
ARG_OF_PERICENTER = 93.7895
MEAN_ANOMALY   = 193.5564

EPHEMERIS_TYPE = 0
CLASSIFICATION_TYPE = U
NORAD_CAT_ID   = 68259
ELEMENT_SET_NO = 999
REV_AT_EPOCH   = 297
BSTAR          = .24608E-4
MEAN_MOTION_DOT = .4159E-4
MEAN_MOTION_DDOT = 0

CCSDS_OMM_VERS = 2.0
CREATION_DATE  = 
ORIGINATOR     = 

OBJECT_NAME    = STARLINK-37056
OBJECT_ID      = 2026-054AE
CENTER_NAME    = EARTH
REF_FRAME      = TEME
TIME_SYSTEM    = UTC
MEAN_ELEMENT_THEORY = SGP/SGP4

EPOCH          = 2026-03-28T12:00:00.998784
MEAN_MOTION    = 15.80923114
ECCENTRICITY   = .0001408
INCLINATION    = 53.1590
RA_OF_ASC_NODE = 218.1578
ARG_OF_PERICENTER = 79.2216
MEAN_ANOMALY   = 220.9339

EPHEMERIS_TYPE = 0
CLASSIFICATION_TYPE = U
NORAD_CAT_ID   = 68260
ELEMENT_SET_NO = 999
REV_AT_EPOCH   = 293
BSTAR          = -.75604E-3
MEAN_MOTION_DOT = -.147743E-2
MEAN_MOTION_DDOT = 0

CCSDS_OMM_VERS = 2.0
CREATION_DATE  = 
ORIGINATOR     = 

OBJECT_NAME    = TEN-KOH 2
OBJECT_ID      = 2025-241B
CENTER_NAME    = EARTH
REF_FRAME      = TEME
TIME_SYSTEM    = UTC
MEAN_ELEMENT_THEORY = SGP/SGP4

EPOCH          = 2026-03-28T03:04:54.952320
MEAN_MOTION    = 15.22728041
ECCENTRICITY   = .00044415
INCLINATION    = 51.6384
RA_OF_ASC_NODE = 345.1973
ARG_OF_PERICENTER = 222.8314
MEAN_ANOMALY   = 137.2318

EPHEMERIS_TYPE = 0
CLASSIFICATION_TYPE = U
NORAD_CAT_ID   = 68261
ELEMENT_SET_NO = 999
REV_AT_EPOCH   = 255
BSTAR          = .39296581E-3
MEAN_MOTION_DOT = .8973E-4
MEAN_MOTION_DDOT = 0

CCSDS_OMM_VERS = 2.0
CREATION_DATE  = 
ORIGINATOR     = 

OBJECT_NAME    = STARLINK-37162
OBJECT_ID      = 2026-055A
CENTER_NAME    = EARTH
REF_FRAME      = TEME
TIME_SYSTEM    = UTC
MEAN_ELEMENT_THEORY = SGP/SGP4

EPOCH          = 2026-03-28T12:00:00.998784
MEAN_MOTION    = 15.95955465
ECCENTRICITY   = .000058
INCLINATION    = 53.1580
RA_OF_ASC_NODE = 243.3924
ARG_OF_PERICENTER = 77.5874
MEAN_ANOMALY   = 208.4434

EPHEMERIS_TYPE = 0
CLASSIFICATION_TYPE = U
NORAD_CAT_ID   = 68262
ELEMENT_SET_NO = 999
REV_AT_EPOCH   = 265
BSTAR          = -.25068E-2
MEAN_MOTION_DOT = -.1051446E-1
MEAN_MOTION_DDOT = .34861E-3

CCSDS_OMM_VERS = 2.0
CREATION_DATE  = 
ORIGINATOR     = 

OBJECT_NAME    = STARLINK-37156
OBJECT_ID      = 2026-055B
CENTER_NAME    = EARTH
REF_FRAME      = TEME
TIME_SYSTEM    = UTC
MEAN_ELEMENT_THEORY = SGP/SGP4

EPOCH          = 2026-03-28T12:00:00.998784
MEAN_MOTION    = 15.96052346
ECCENTRICITY   = .0000626
INCLINATION    = 53.1580
RA_OF_ASC_NODE = 243.3879
ARG_OF_PERICENTER = 74.9946
MEAN_ANOMALY   = 213.4141

EPHEMERIS_TYPE = 0
CLASSIFICATION_TYPE = U
NORAD_CAT_ID   = 68263
ELEMENT_SET_NO = 999
REV_AT_EPOCH   = 265
BSTAR          = -.25223E-2
MEAN_MOTION_DOT = -.106341E-1
MEAN_MOTION_DDOT = .35619E-3

CCSDS_OMM_VERS = 2.0
CREATION_DATE  = 
ORIGINATOR     = 

OBJECT_NAME    = STARLINK-37163
OBJECT_ID      = 2026-055C
CENTER_NAME    = EARTH
REF_FRAME      = TEME
TIME_SYSTEM    = UTC
MEAN_ELEMENT_THEORY = SGP/SGP4

EPOCH          = 2026-03-28T12:00:00.998784
MEAN_MOTION    = 15.96301420
ECCENTRICITY   = .0000609
INCLINATION    = 53.1579
RA_OF_ASC_NODE = 243.3746
ARG_OF_PERICENTER = 74.4714
MEAN_ANOMALY   = 219.9667

EPHEMERIS_TYPE = 0
CLASSIFICATION_TYPE = U
NORAD_CAT_ID   = 68264
ELEMENT_SET_NO = 999
REV_AT_EPOCH   = 265
BSTAR          = -.26647E-2
MEAN_MOTION_DOT = -.1137978E-1
MEAN_MOTION_DDOT = .40381E-3

CCSDS_OMM_VERS = 2.0
CREATION_DATE  = 
ORIGINATOR     = 

OBJECT_NAME    = STARLINK-37133
OBJECT_ID      = 2026-055D
CENTER_NAME    = EARTH
REF_FRAME      = TEME
TIME_SYSTEM    = UTC
MEAN_ELEMENT_THEORY = SGP/SGP4

EPOCH          = 2026-03-28T12:00:00.998784
MEAN_MOTION    = 15.96182803
ECCENTRICITY   = .0000524
INCLINATION    = 53.1579
RA_OF_ASC_NODE = 243.3812
ARG_OF_PERICENTER = 82.3824
MEAN_ANOMALY   = 209.1129

EPHEMERIS_TYPE = 0
CLASSIFICATION_TYPE = U
NORAD_CAT_ID   = 68265
ELEMENT_SET_NO = 999
REV_AT_EPOCH   = 265
BSTAR          = -.26072E-2
MEAN_MOTION_DOT = -.1106586E-1
MEAN_MOTION_DDOT = .38335E-3

CCSDS_OMM_VERS = 2.0
CREATION_DATE  = 
ORIGINATOR     = 

OBJECT_NAME    = STARLINK-37042
OBJECT_ID      = 2026-055E
CENTER_NAME    = EARTH
REF_FRAME      = TEME
TIME_SYSTEM    = UTC
MEAN_ELEMENT_THEORY = SGP/SGP4

EPOCH          = 2026-03-28T12:00:00.998784
MEAN_MOTION    = 15.96430316
ECCENTRICITY   = .0000704
INCLINATION    = 53.1579
RA_OF_ASC_NODE = 243.3671
ARG_OF_PERICENTER = 73.8848
MEAN_ANOMALY   = 224.3948

EPHEMERIS_TYPE = 0
CLASSIFICATION_TYPE = U
NORAD_CAT_ID   = 68266
ELEMENT_SET_NO = 999
REV_AT_EPOCH   = 265
BSTAR          = -.27319E-2
MEAN_MOTION_DOT = -.1174515E-1
MEAN_MOTION_DDOT = .42823E-3

CCSDS_OMM_VERS = 2.0
CREATION_DATE  = 
ORIGINATOR     = 

OBJECT_NAME    = STARLINK-37103
OBJECT_ID      = 2026-055F
CENTER_NAME    = EARTH
REF_FRAME      = TEME
TIME_SYSTEM    = UTC
MEAN_ELEMENT_THEORY = SGP/SGP4

EPOCH          = 2026-03-28T12:00:00.998784
MEAN_MOTION    = 15.96540835
ECCENTRICITY   = .0000668
INCLINATION    = 53.1581
RA_OF_ASC_NODE = 243.3600
ARG_OF_PERICENTER = 74.5782
MEAN_ANOMALY   = 227.0049

EPHEMERIS_TYPE = 0
CLASSIFICATION_TYPE = U
NORAD_CAT_ID   = 68267
ELEMENT_SET_NO = 999
REV_AT_EPOCH   = 265
BSTAR          = -.27512E-2
MEAN_MOTION_DOT = -.1189817E-1
MEAN_MOTION_DDOT = .43892E-3

CCSDS_OMM_VERS = 2.0
CREATION_DATE  = 
ORIGINATOR     = 

OBJECT_NAME    = STARLINK-36999
OBJECT_ID      = 2026-055G
CENTER_NAME    = EARTH
REF_FRAME      = TEME
TIME_SYSTEM    = UTC
MEAN_ELEMENT_THEORY = SGP/SGP4

EPOCH          = 2026-03-28T12:00:00.998784
MEAN_MOTION    = 15.96645655
ECCENTRICITY   = .0000589
INCLINATION    = 53.1580
RA_OF_ASC_NODE = 243.3540
ARG_OF_PERICENTER = 79.4718
MEAN_ANOMALY   = 225.0862

EPHEMERIS_TYPE = 0
CLASSIFICATION_TYPE = U
NORAD_CAT_ID   = 68268
ELEMENT_SET_NO = 999
REV_AT_EPOCH   = 265
BSTAR          = -.27461E-2
MEAN_MOTION_DOT = -.1194368E-1
MEAN_MOTION_DDOT = .44245E-3

CCSDS_OMM_VERS = 2.0
CREATION_DATE  = 
ORIGINATOR     = 

OBJECT_NAME    = STARLINK-36962
OBJECT_ID      = 2026-055H
CENTER_NAME    = EARTH
REF_FRAME      = TEME
TIME_SYSTEM    = UTC
MEAN_ELEMENT_THEORY = SGP/SGP4

EPOCH          = 2026-03-28T12:00:00.998784
MEAN_MOTION    = 15.96753723
ECCENTRICITY   = .0000616
INCLINATION    = 53.1581
RA_OF_ASC_NODE = 243.3473
ARG_OF_PERICENTER = 78.5152
MEAN_ANOMALY   = 229.1978

EPHEMERIS_TYPE = 0
CLASSIFICATION_TYPE = U
NORAD_CAT_ID   = 68269
ELEMENT_SET_NO = 999
REV_AT_EPOCH   = 265
BSTAR          = -.27486E-2
MEAN_MOTION_DOT = -.120247E-1
MEAN_MOTION_DDOT = .44842E-3

CCSDS_OMM_VERS = 2.0
CREATION_DATE  = 
ORIGINATOR     = 

OBJECT_NAME    = STARLINK-37028
OBJECT_ID      = 2026-055J
CENTER_NAME    = EARTH
REF_FRAME      = TEME
TIME_SYSTEM    = UTC
MEAN_ELEMENT_THEORY = SGP/SGP4

EPOCH          = 2026-03-28T12:00:00.998784
MEAN_MOTION    = 15.96965608
ECCENTRICITY   = .0000696
INCLINATION    = 53.1581
RA_OF_ASC_NODE = 243.3265
ARG_OF_PERICENTER = 76.9251
MEAN_ANOMALY   = 240.5340

EPHEMERIS_TYPE = 0
CLASSIFICATION_TYPE = U
NORAD_CAT_ID   = 68270
ELEMENT_SET_NO = 999
REV_AT_EPOCH   = 265
BSTAR          = -.27614E-2
MEAN_MOTION_DOT = -.1222048E-1
MEAN_MOTION_DDOT = .4628E-3

CCSDS_OMM_VERS = 2.0
CREATION_DATE  = 
ORIGINATOR     = 

OBJECT_NAME    = STARLINK-37029
OBJECT_ID      = 2026-055K
CENTER_NAME    = EARTH
REF_FRAME      = TEME
TIME_SYSTEM    = UTC
MEAN_ELEMENT_THEORY = SGP/SGP4

EPOCH          = 2026-03-28T12:00:00.998784
MEAN_MOTION    = 15.96855979
ECCENTRICITY   = .0000579
INCLINATION    = 53.1581
RA_OF_ASC_NODE = 243.3338
ARG_OF_PERICENTER = 80.0681
MEAN_ANOMALY   = 234.1497

EPHEMERIS_TYPE = 0
CLASSIFICATION_TYPE = U
NORAD_CAT_ID   = 68271
ELEMENT_SET_NO = 999
REV_AT_EPOCH   = 265
BSTAR          = -.27651E-2
MEAN_MOTION_DOT = -.1216364E-1
MEAN_MOTION_DDOT = .45837E-3

CCSDS_OMM_VERS = 2.0
CREATION_DATE  = 
ORIGINATOR     = 

OBJECT_NAME    = STARLINK-36974
OBJECT_ID      = 2026-055L
CENTER_NAME    = EARTH
REF_FRAME      = TEME
TIME_SYSTEM    = UTC
MEAN_ELEMENT_THEORY = SGP/SGP4

EPOCH          = 2026-03-28T12:00:00.998784
MEAN_MOTION    = 15.97083502
ECCENTRICITY   = .0000668
INCLINATION    = 53.1580
RA_OF_ASC_NODE = 243.3184
ARG_OF_PERICENTER = 89.8168
MEAN_ANOMALY   = 231.6735

EPHEMERIS_TYPE = 0
CLASSIFICATION_TYPE = U
NORAD_CAT_ID   = 68272
ELEMENT_SET_NO = 999
REV_AT_EPOCH   = 265
BSTAR          = -.27418E-2
MEAN_MOTION_DOT = -.1221258E-1
MEAN_MOTION_DDOT = .46282E-3

